GSAT0101 (PRN E11)      
1 37846U 11060A   22349.50708221 -.00000066  00000+0  00000+0 0  9992
2 37846  57.0525  16.4204 0002209 320.7651  39.2749  1.70476092 69306
GSAT0102 (PRN E12)      
1 37847U 11060B   22349.71091191 -.00000066  00000+0  00000+0 0  9997
2 37847  57.0533  16.4145 0004125 304.4915 227.5199  1.70475411 69430
GSAT0103 (PRN E19)      
1 38857U 12055A   22349.54580746  .00000073  00000+0  00000+0 0  9991
2 38857  55.1938 136.7190 0002400 230.8674 129.0891  1.70473663 63193
GSAT0104 (PRN E20)      
1 38858U 12055B   22350.68880564  .00000077  00000+0  00000+0 0  9994
2 38858  55.1949 136.6891 0001651 156.1589 203.8285  1.70473889 63216
GSAT0201 (PRN E18)      
1 40128U 14050A   22349.31276420 -.00000077  00000+0  00000+0 0  9993
2 40128  50.1564 325.0733 1614819 130.5958 244.6527  1.85519534 54574
GSAT0202 (PRN E14)      
1 40129U 14050B   22350.11211435 -.00000076  00000+0  00000+0 0  9998
2 40129  50.1782 324.1071 1612138 131.4379 243.6125  1.85520182 56724
GSAT0203 (PRN E26)      
1 40544U 15017A   22349.87306210 -.00000066  00000+0  00000+0 0  9999
2 40544  56.8474  16.4188 0005126 257.9285 102.0701  1.70476048 47394
GSAT0204 (PRN E22)      
1 40545U 15017B   22349.53965349 -.00000067  00000+0  00000+0 0  9998
2 40545  56.8541  16.4411 0004809 245.2260 114.7797  1.70475751 10439
GSAT0205 (PRN E24)      
1 40889U 15045A   22348.72097073  .00000002  00000+0  00000+0 0  9998
2 40889  55.5116 256.9849 0005878  16.4336 343.6443  1.70472896 45187
GSAT0206 (PRN E30)      
1 40890U 15045B   22350.11487597  .00000004  00000+0  00000+0 0  9992
2 40890  55.5095 256.9421 0004181   8.4945 351.5688  1.70472965 45236
GSAT0209 (PRN E09)      
1 41174U 15079A   22349.70133004  .00000073  00000+0  00000+0 0  9995
2 41174  55.2105 136.4196 0001728 330.3952  29.5730  1.70474666 43543
GSAT0208 (PRN E08)      
1 41175U 15079B   22350.50742637  .00000076  00000+0  00000+0 0  9997
2 41175  55.2095 136.3959 0001082 341.2070  18.7684  1.70474564 43391
GSAT0211 (PRN E02)      
1 41549U 16030A   22349.45395660  .00000003  00000+0  00000+0 0  9992
2 41549  55.6559 256.9126 0004793 347.0042  13.0410  1.70472914 40855
GSAT0210 (PRN E01)      
1 41550U 16030B   22349.15942413  .00000003  00000+0  00000+0 0  9995
2 41550  55.6574 256.9220 0004584 302.6299  57.3839  1.70473229 40843
GSAT0207 (PRN E07)      
1 41859U 16069A   22349.40879783  .00000071  00000+0  00000+0 0  9991
2 41859  54.8722 136.5644 0001702 292.6351  67.3242  1.70474609 37804
GSAT0212 (PRN E03)      
1 41860U 16069B   22350.43566092  .00000075  00000+0  00000+0 0  9998
2 41860  54.8704 136.5331 0001297  20.7400 339.2446  1.70473439 37855
GSAT0213 (PRN E04)      
1 41861U 16069C   22349.62771882  .00000072  00000+0  00000+0 0  9990
2 41861  54.8718 136.5610 0002078 244.3831 115.5734  1.70473384 37709
GSAT0214 (PRN E05)      
1 41862U 16069D   22350.36148333  .00000075  00000+0  00000+0 0  9996
2 41862  54.8703 136.5350 0001213 232.7429 127.2253  1.70473428 37849
GSAT0215 (PRN E21)      
1 43055U 17079A   22348.50522396  .00000002  00000+0  00000+0 0  9992
2 43055  55.6328 256.7685 0002552 323.4673  36.5748  1.70473723 31156
GSAT0216 (PRN E25)      
1 43056U 17079B   22345.86431058 -.00000001  00000+0  00000+0 0  9993
2 43056  55.6347 256.8409 0005061 297.4726  62.5363  1.70474891 31126
GSAT0217 (PRN E27)      
1 43057U 17079C   22348.43102063  .00000002  00000+0  00000+0 0  9991
2 43057  55.6314 256.7697 0004178 322.2019  37.8284  1.70473765 31158
GSAT0218 (PRN E31)      
1 43058U 17079D   22348.65103855  .00000003  00000+0  00000+0 0  9997
2 43058  55.6313 256.7611 0004491 298.7354  61.2788  1.70473843 31181
GSAT0221 (PRN E15)      
1 43564U 18060A   22348.54957195 -.00000069  00000+0  00000+0 0  9995
2 43564  57.2289  16.3164 0005434 271.8161  88.1773  1.70476061 27331
GSAT0222 (PRN E33)      
1 43565U 18060B   22347.00969366 -.00000075  00000+0  00000+0 0  9996
2 43565  57.2309  16.3587 0004991 277.9187  82.0810  1.70476101 27358
GSAT0219 (PRN E36)      
1 43566U 18060C   22350.16315472 -.00000064  00000+0  00000+0 0  9999
2 43566  57.2323  16.2754 0004646 277.9465  82.0572  1.70476007 27389
GSAT0220 (PRN E13)      
1 43567U 18060D   22345.10415557 -.00000081  00000+0  00000+0 0  9992
2 43567  57.2306  16.4128 0004106 273.9997  86.0121  1.70476114 27276
GSAT0223                
1 49809U 21116A   22350.25587858 -.00000064  00000+0  00000+0 0  9990
2 49809  57.2241  16.1714 0003259 229.5726 142.2956  1.70476223  6383
GSAT0224                
1 49810U 21116B   22349.76299413 -.00000065  00000+0  00000+0 0  9994
2 49810  57.2249  16.1829 0002601 236.1667 305.6798  1.70476244  6380
